STARLINK-4351           
1 53193U 22084E   26068.71255429  .00000530  00000+0  45803-4 0  9995
2 53193  97.6036 130.2379 0002083  87.3881 272.7581 15.01258627200334
SATGUS                  
1 62713U 25009DJ  26068.70670884  .00009370  00000+0  76063-3 0  9990
2 62713  97.7097 150.9679 0005670  96.3538 263.8332 14.99840473 62643
